STARLINK-5303           
1 55630U 23021C   26068.80262972  .00000032  00000+0  10498-4 0  9995
2 55630  70.0006 204.2304 0003064 269.6598  90.4210 14.98330043168317
2024-205L               
1 61904U 24205L   26066.14074752  .00013606  00000+0  79283-3 0  9990
2 61904  97.4213 140.2188 0054772 346.2042  13.7688 15.10822925 72825
